{
  "type": "FeatureCollection",
  "features": [
    {
      "type": "Feature",
      "id": "whale-monterey",
      "geometry": { "type": "Point", "coordinates": [-122.0, 36.6] },
      "properties": {
        "id": "whale-monterey",
        "title": "Blue whale — Monterey",
        "details": "Demo whale_movements ping"
      }
    },
    {
      "type": "Feature",
      "id": "whale-stellwagen",
      "geometry": { "type": "Point", "coordinates": [-70.3, 42.4] },
      "properties": {
        "id": "whale-stellwagen",
        "title": "Humpback — Stellwagen",
        "details": "Demo whale_movements ping"
      }
    },
    {
      "type": "Feature",
      "id": "whale-azores",
      "geometry": { "type": "Point", "coordinates": [-28.0, 38.5] },
      "properties": {
        "id": "whale-azores",
        "title": "Sperm whale — Azores",
        "details": "Demo whale_movements ping"
      }
    }
  ]
}
